SL-12 R/B(2)            
1 15772U 85042D   26193.97058034 -.00000049  00000+0 -30962-6 0  9998
2 15772  71.1065 183.0415 0037241 289.4433  90.7246 14.22010690132207
SL-14 R/B               
1 15945U 85069B   26193.68074654  .00000225  00000+0  22568-4 0  9998
2 15945  82.5265 267.3911 0019898 135.1483 225.1346 14.86534107191400
SL-16 R/B               
1 16182U 85097B   26194.10538389  .00000010  00000+0  28770-4 0  9994
2 16182  71.0008 236.5127 0005550  55.9305 333.5300 14.16612265104998
SL-14 R/B               
1 16496U 86006B   26193.89214435  .00000242  00000+0  22886-4 0  9990
2 16496  82.5281 141.9244 0075295 216.5910 143.0151 14.86967308167811
COSMOS 1743             
1 16719U 86034A   26193.28883244  .00036827  00000+0  31357-3 0  9992
2 16719  82.5282 301.9968 0005295 185.6738 174.4465 15.69378338199720
SL-14 R/B               
1 16792U 86046B   26193.88096859  .00000249  00000+0  25784-4 0  9997
2 16792  82.4837 321.8969 0023323 170.5483 189.6177 14.85689553144998
SL-14 R/B               
1 16882U 86055B   26194.01299705  .00000219  00000+0  22433-4 0  9993
2 16882  82.5201   8.8481 0017313 278.2008 174.9379 14.85739443137971
AJISAI (EGS)            
1 16908U 86061A   26194.15840372 -.00000094  00000+0  26711-4 0  9991
2 16908  50.0100  67.5346 0011091 246.6830 198.4916 12.44516670483621
SL-14 R/B               
1 17567U 87024B   26193.86886042  .00000255  00000+0  26128-4 0  9994
2 17567  82.5295 335.1103 0017626 201.6604 158.3869 14.86230750106728
COSMOS 1833             
1 17589U 87027A   26193.94637463  .00000112  00000+0  85672-4 0  9992
2 17589  70.9212  62.7271 0024084  12.3136 347.8569 14.13065950 28019
SL-16 R/B               
1 17590U 87027B   26193.90873510 -.00000049  00000+0 -35735-6 0  9993
2 17590  71.0030  12.6244 0007135 283.8055  76.2275 14.17173190 33088
SL-14 R/B               
1 17912U 87038B   26193.92829343  .00000225  00000+0  23116-4 0  9992
2 17912  82.5011 178.8250 0020761 109.1337 251.2130 14.85460619 97824
COSMOS 1844             
1 17973U 87041A   26194.20048248  .00000134  00000+0  94702-4 0  9990
2 17973  70.8998 129.4370 0031449 198.1350 161.8652 14.14580025 21332
SL-14 R/B               
1 18153U 87055B   26194.08511110  .00000203  00000+0  20611-4 0  9990
2 18153  82.4973 230.8147 0019552 322.4660  37.5190 14.85726312 88553
COSMOS 1867             
1 18187U 87060A   26193.70230345 -.00000068  00000+0  12209-4 0  9993
2 18187  65.0120 316.6013 0017087 282.0156  77.9013 14.31518306 37838
SL-14 R/B               
1 18749U 88001B   26193.81956020  .00000221  00000+0  22633-4 0  9992
2 18749  82.5122  77.6582 0017981 179.5832 180.5402 14.85625896 60603
COSMOS 1933             
1 18958U 88020A   26193.86388176  .00001912  00000+0  90196-4 0  9998
2 18958  82.5140 127.0066 0005777 113.4253 246.7589 15.18881124 69229
SL-3 R/B                
1 19046U 88032B   26194.16486784  .00002328  00000+0  10722-3 0  9996
2 19046  97.5268 177.1844 0026322 152.5386 207.7246 15.21022396 71171
SL-16 R/B               
1 19120U 88039B   26193.90997803 -.00000183  00000+0 -63696-4 0  9994
2 19120  71.0137 163.7667 0020732 153.1578 207.0625 14.19631281976150
COSMOS 1953             
1 19210U 88050A   26193.98059709  .00005229  00000+0  17685-3 0  9999
2 19210  82.5060  32.0148 0011685  47.1296 313.0923 15.30319895 56932
SL-8 R/B                
1 19257U 88053B   26193.60904965  .00000118  00000+0  46550-4 0  9991
2 19257  74.0460 242.1964 0019643  28.6362 132.6191 14.38977367994566
COSMOS 1975             
1 19573U 88093A   26193.93113955  .00004197  00000+0  14465-3 0  9993
2 19573  82.5192 351.7977 0012549  89.4067 270.8611 15.29645818 38542
SL-14 R/B               
1 19574U 88093B   26194.20434816  .00000215  00000+0  21875-4 0  9998
2 19574  82.5316 284.2208 0020185 347.0944  88.9075 14.85759374 19657
SL-16 R/B               
1 19650U 88102B   26193.57485962 -.00000216  00000+0 -85082-4 0  9994
2 19650  70.9981 248.7209 0014458 189.6824 170.4023 14.16167252944570
INTERCOSMOS 24          
1 20261U 89080A   26193.98636186  .00000216  00000+0  59295-4 0  9996
2 20261  82.6048  22.8526 1187325   2.0723 358.4698 12.59691388682570
SL-14 R/B               
1 20262U 89080C   26194.16242154  .00000066  00000+0  19255-4 0  9991
2 20262  82.5936  92.6184 1228632 257.9435  88.1663 12.50578237675837
DELTA 1 R/B             
1 20323U 89089B   26194.01497604  .00000155  00000+0  46726-4 0  9996
2 20323  97.0634  21.4399 0070650  86.7138 274.2140 14.50747081913909
ARIANE 40 R/B           
1 20443U 90005H   26194.17219662  .00000110  00000+0  48495-4 0  9998
2 20443  98.2946 250.9785 0010138 179.9827 180.1364 14.39940196910868
DELTA 2 R/B(1)          
1 20453U 90008B   26193.92755865  .00092909  00000+0  57423-3 0  9991
2 20453  35.6002  62.9055 0060056 354.6112   5.3978 15.73246033945754
COSMOS 2058             
1 20465U 90010A   26194.20859403  .00001563  00000+0  88939-4 0  9995
2 20465  82.4672 283.6920 0007880 258.2666 101.7681 15.12150324961202
SL-14 R/B               
1 20466U 90010B   26193.93098359  .00000194  00000+0  20558-4 0  9992
2 20466  82.5034 149.7685 0018295 245.3215 114.6096 14.83662322947058
