OBJECT_NAME,OBJECT_ID,EPOCH,MEAN_MOTION,ECCENTRICITY,INCLINATION,RA_OF_ASC_NODE,ARG_OF_PERICENTER,MEAN_ANOMALY,EPHEMERIS_TYPE,CLASSIFICATION_TYPE,NORAD_CAT_ID,ELEMENT_SET_NO,REV_AT_EPOCH,BSTAR,MEAN_MOTION_DOT,MEAN_MOTION_DDOT
SL-12 R/B(2),1985-042D,2026-07-12T23:17:38.141376,14.22010690,.0037241,71.1065,183.0415,289.4433,90.7246,0,U,15772,999,13220,-.30962E-6,-.49E-6,0
SL-14 R/B,1985-069B,2026-07-12T16:20:16.501056,14.86534107,.0019898,82.5265,267.3911,135.1483,225.1346,0,U,15945,999,19140,.22568E-4,.225E-5,0
SL-16 R/B,1985-097B,2026-07-13T02:31:45.168096,14.16612265,.000555,71.0008,236.5127,55.9305,333.5300,0,U,16182,999,10499,.2877E-4,.1E-6,0
SL-14 R/B,1986-006B,2026-07-12T21:24:41.271840,14.86967308,.0075295,82.5281,141.9244,216.5910,143.0151,0,U,16496,999,16781,.22886E-4,.242E-5,0
COSMOS 1743,1986-034A,2026-07-12T06:55:55.122816,15.69378338,.0005295,82.5282,301.9968,185.6738,174.4465,0,U,16719,999,19972,.31357E-3,.36827E-3,0
SL-14 R/B,1986-046B,2026-07-12T21:08:35.686176,14.85689553,.0023323,82.4837,321.8969,170.5483,189.6177,0,U,16792,999,14499,.25784E-4,.249E-5,0
SL-14 R/B,1986-055B,2026-07-13T00:18:42.945120,14.85739443,.0017313,82.5201,8.8481,278.2008,174.9379,0,U,16882,999,13797,.22433E-4,.219E-5,0
AJISAI (EGS),1986-061A,2026-07-13T03:48:06.081408,12.44516670,.0011091,50.0100,67.5346,246.6830,198.4916,0,U,16908,999,48362,.26711E-4,-.94E-6,0
SL-14 R/B,1987-024B,2026-07-12T20:51:09.540288,14.86230750,.0017626,82.5295,335.1103,201.6604,158.3869,0,U,17567,999,10672,.26128E-4,.255E-5,0
COSMOS 1833,1987-027A,2026-07-12T22:42:46.768032,14.13065950,.0024084,70.9212,62.7271,12.3136,347.8569,0,U,17589,999,2801,.85672E-4,.112E-5,0
SL-16 R/B,1987-027B,2026-07-12T21:48:34.712640,14.17173190,.0007135,71.0030,12.6244,283.8055,76.2275,0,U,17590,999,3308,-.35735E-6,-.49E-6,0
SL-14 R/B,1987-038B,2026-07-12T22:16:44.552352,14.85460619,.0020761,82.5011,178.8250,109.1337,251.2130,0,U,17912,999,9782,.23116E-4,.225E-5,0
COSMOS 1844,1987-041A,2026-07-13T04:48:41.686272,14.14580025,.0031449,70.8998,129.4370,198.1350,161.8652,0,U,17973,999,2133,.94702E-4,.134E-5,0
SL-14 R/B,1987-055B,2026-07-13T02:02:33.599040,14.85726312,.0019552,82.4973,230.8147,322.4660,37.5190,0,U,18153,999,8855,.20611E-4,.203E-5,0
COSMOS 1867,1987-060A,2026-07-12T16:51:19.018080,14.31518306,.0017087,65.0120,316.6013,282.0156,77.9013,0,U,18187,999,3783,.12209E-4,-.68E-6,0
SL-14 R/B,1988-001B,2026-07-12T19:40:10.001280,14.85625896,.0017981,82.5122,77.6582,179.5832,180.5402,0,U,18749,999,6060,.22633E-4,.221E-5,0
COSMOS 1933,1988-020A,2026-07-12T20:43:59.384064,15.18881124,.0005777,82.5140,127.0066,113.4253,246.7589,0,U,18958,999,6922,.90196E-4,.1912E-4,0
SL-3 R/B,1988-032B,2026-07-13T03:57:24.581376,15.21022396,.0026322,97.5268,177.1844,152.5386,207.7246,0,U,19046,999,7117,.10722E-3,.2328E-4,0
SL-16 R/B,1988-039B,2026-07-12T21:50:22.101792,14.19631281,.0020732,71.0137,163.7667,153.1578,207.0625,0,U,19120,999,97615,-.63696E-4,-.183E-5,0
COSMOS 1953,1988-050A,2026-07-12T23:32:03.588576,15.30319895,.0011685,82.5060,32.0148,47.1296,313.0923,0,U,19210,999,5693,.17685E-3,.5229E-4,0
SL-8 R/B,1988-053B,2026-07-12T14:37:01.889760,14.38977367,.0019643,74.0460,242.1964,28.6362,132.6191,0,U,19257,999,99456,.4655E-4,.118E-5,0
COSMOS 1975,1988-093A,2026-07-12T22:20:50.457120,15.29645818,.0012549,82.5192,351.7977,89.4067,270.8611,0,U,19573,999,3854,.14465E-3,.4197E-4,0
SL-14 R/B,1988-093B,2026-07-13T04:54:15.681024,14.85759374,.0020185,82.5316,284.2208,347.0944,88.9075,0,U,19574,999,1965,.21875E-4,.215E-5,0
SL-16 R/B,1988-102B,2026-07-12T13:47:47.871168,14.16167252,.0014458,70.9981,248.7209,189.6824,170.4023,0,U,19650,999,94457,-.85082E-4,-.216E-5,0
INTERCOSMOS 24,1989-080A,2026-07-12T23:40:21.664704,12.59691388,.1187325,82.6048,22.8526,2.0723,358.4698,0,U,20261,999,68257,.59295E-4,.216E-5,0
SL-14 R/B,1989-080C,2026-07-13T03:53:53.221056,12.50578237,.1228632,82.5936,92.6184,257.9435,88.1663,0,U,20262,999,67583,.19255E-4,.66E-6,0
DELTA 1 R/B,1989-089B,2026-07-13T00:21:33.929856,14.50747081,.007065,97.0634,21.4399,86.7138,274.2140,0,U,20323,999,91390,.46726E-4,.155E-5,0
ARIANE 40 R/B,1990-005H,2026-07-13T04:07:57.787968,14.39940196,.0010138,98.2946,250.9785,179.9827,180.1364,0,U,20443,999,91086,.48495E-4,.11E-5,0
DELTA 2 R/B(1),1990-008B,2026-07-12T22:15:41.067360,15.73246033,.0060056,35.6002,62.9055,354.6112,5.3978,0,U,20453,999,94575,.57423E-3,.92909E-3,0
COSMOS 2058,1990-010A,2026-07-13T05:00:22.524192,15.12150324,.000788,82.4672,283.6920,258.2666,101.7681,0,U,20465,999,96120,.88939E-4,.1563E-4,0
SL-14 R/B,1990-010B,2026-07-12T22:20:36.982176,14.83662322,.0018295,82.5034,149.7685,245.3215,114.6096,0,U,20466,999,94705,.20558E-4,.194E-5,0
